ONEWEB-0368             
1 49294U 21090R   26166.01586995 -.00000004  00000+0 -41862-4 0  9994
2 49294  87.9182 274.8838 0001483  82.7553 277.3749 13.20770056230691
ONEWEB-0369             
1 49295U 21090S   26166.13491698  .00000005  00000+0 -21033-4 0  9991
2 49295  87.9167 305.3830 0001784  97.9212 262.2123 13.19724485226148
ONEWEB-0370             
1 49296U 21090T   26166.05122662 -.00000008  00000+0 -52140-4 0  9992
2 49296  87.9194 274.8657 0002152 105.9131 254.2239 13.20769889229585
ONEWEB-0371             
1 49297U 21090U   26166.14280831 -.00000065  00000+0 -19512-3 0  9994
2 49297  87.9172 305.3735 0001857 102.3520 257.7821 13.19724091226185
ONEWEB-0372             
1 49298U 21090V   26166.04098604  .00000028  00000+0  38016-4 0  9997
2 49298  87.9195 274.8694 0001957 101.5042 258.6311 13.20771281229559
ONEWEB-0373             
1 49299U 21090W   26166.06638366  .00000007  00000+0 -14819-4 0  9998
2 49299  87.9191 274.8648 0002082 100.4692 259.6676 13.20771411230747
ONEWEB-0374             
1 49300U 21090X   26166.06355169 -.00000316  00000+0 -88782-3 0  9991
2 49300  87.8966 290.1206 0002210  85.4942 274.6440 13.14502622227283
ONEWEB-0375             
1 49301U 21090Y   26166.05460449 -.00000008  00000+0 -51597-4 0  9992
2 49301  87.9193 274.8587 0002333  88.1674 271.9727 13.20770977230241
ONEWEB-0376             
1 49302U 21090Z   26166.14122898 -.00000061  00000+0 -18416-3 0  9997
2 49302  87.9175 305.3738 0001683 101.0751 259.0571 13.19724642226186
ONEWEB-0377             
1 49303U 21090AA  26166.04119839  .00001821  00000+0  44432-2 0  9997
2 49303  87.9210 274.8635 0002171 108.3576 251.7794 13.20818491230236
ONEWEB-0378             
1 49304U 21090AB  26166.06146631 -.00000006  00000+0 -46416-4 0  9992
2 49304  87.9188 274.8644 0001967  96.0631 264.0726 13.20769784229508
ONEWEB-0379             
1 49305U 21090AC  26166.05878978 -.00000269  00000+0 -76064-3 0  9990
2 49305  87.8964 290.1321 0001925  96.1499 263.9850 13.14502324227287
ONEWEB-0380             
1 49306U 21090AD  26166.13807911 -.00000011  00000+0 -61008-4 0  9997
2 49306  87.9168 305.3797 0002051  97.3984 262.7381 13.19724430226154
ONEWEB-0381             
1 49307U 21090AE  26166.03776839  .00000028  00000+0  37395-4 0  9999
2 49307  87.9195 274.8687 0002106  93.3234 266.8141 13.20771809229547
ONEWEB-0382             
1 49308U 21090AF  26166.02429336  .00003972  00000+0  97365-2 0  9998
2 49308  87.9189 274.8657 0002282  88.4606 271.6788 13.20750366229536
ONEWEB-0383             
1 49309U 21090AG  26166.05243435 -.00000188  00000+0 -54281-3 0  9995
2 49309  87.8967 290.1246 0001853  95.0138 265.1203 13.14500885227318
ONEWEB-0384             
1 49310U 21090AH  26165.86149203  .00000024  00000+0  26117-4 0  9998
2 49310  87.9194 274.9419 0001988  86.7173 273.4188 13.20812344229522
ONEWEB-0385             
1 49311U 21090AJ  26166.01756620  .00000022  00000+0  21298-4 0  9997
2 49311  87.9192 274.8724 0002016  94.2393 265.8971 13.20771920229518
ONEWEB-0386             
1 49312U 21090AK  26166.03440200  .00000043  00000+0  73708-4 0  9990
2 49312  87.9195 274.8598 0001962  93.1476 266.9882 13.20771430229531
ONEWEB-0387             
1 49313U 21090AL  26166.01924968  .00000032  00000+0  47263-4 0  9992
2 49313  87.9183 274.8853 0002333  96.7289 263.4109 13.20772403229532
ONEWEB-0388             
1 49314U 21090AM  26166.13334087 -.00000060  00000+0 -18236-3 0  9993
2 49314  87.9167 305.3787 0001887  94.2448 265.8901 13.19724433226142
ONEWEB-0389             
1 50469U 21132A   26166.07250418  .00000120  00000+0  27584-3 0  9992
2 50469  87.9132   6.2889 0002184  82.8767 277.2612 13.17648528217802
ONEWEB-0390             
1 50470U 21132B   26166.07419177  .00000030  00000+0  43119-4 0  9996
2 50470  87.9133   6.2894 0001965  94.1033 266.0324 13.17648461217801
ONEWEB-0391             
1 50471U 21132C   26166.07588036 -.00000028  00000+0 -10615-3 0  9991
2 50471  87.9134   6.2987 0002695  86.5823 273.5616 13.17648434217806
ONEWEB-0392             
1 50472U 21132D   26166.10626220 -.00000040  00000+0 -13562-3 0  9992
2 50472  87.9142   6.2608 0002232  83.8500 276.2885 13.17649217217847
ONEWEB-0393             
1 50473U 21132E   26166.08178602  .00000000  00000+0 -32840-4 0  9992
2 50473  87.9134   6.2830 0002012  85.4194 274.7168 13.17649916217831
ONEWEB-0394             
1 50474U 21132F   26165.97358044  .00001118  00000+0  28038-2 0  9992
2 50474  87.9170 335.8823 0001815  86.9904 273.1436 13.18681025221306
ONEWEB-0395             
1 50475U 21132G   26166.10702977  .00000075  00000+0  17604-3 0  9996
2 50475  87.8887  21.4815 0002007  89.0881 271.0477 13.11420007215446
ONEWEB-0396             
1 50476U 21132H   26166.04269528  .00000026  00000+0  33195-4 0  9990
2 50476  87.9168 335.8813 0001948  87.6345 272.5010 13.18684810221359
ONEWEB-0397             
1 50477U 21132J   26165.98199661  .00000041  00000+0  72110-4 0  9990
2 50477  87.9168 335.8934 0001870  84.6156 275.5189 13.18684824221327
ONEWEB-0398             
1 50478U 21132K   26166.07480694 -.00000280  00000+0 -82706-3 0  9999
2 50478  87.8893  21.4782 0001939  94.6934 265.4415 13.11414583215332
