OBJECT_NAME,OBJECT_ID,EPOCH,MEAN_MOTION,ECCENTRICITY,INCLINATION,RA_OF_ASC_NODE,ARG_OF_PERICENTER,MEAN_ANOMALY,EPHEMERIS_TYPE,CLASSIFICATION_TYPE,NORAD_CAT_ID,ELEMENT_SET_NO,REV_AT_EPOCH,BSTAR,MEAN_MOTION_DOT,MEAN_MOTION_DDOT
ONEWEB-0368,2021-090R,2026-06-15T00:22:51.163680,13.20770056,.0001483,87.9182,274.8838,82.7553,277.3749,0,U,49294,999,23069,-.41862E-4,-.4E-7,0
ONEWEB-0369,2021-090S,2026-06-15T03:14:16.827072,13.19724485,.0001784,87.9167,305.3830,97.9212,262.2123,0,U,49295,999,22614,-.21033E-4,.5E-7,0
ONEWEB-0370,2021-090T,2026-06-15T01:13:45.979968,13.20769889,.0002152,87.9194,274.8657,105.9131,254.2239,0,U,49296,999,22958,-.5214E-4,-.8E-7,0
ONEWEB-0371,2021-090U,2026-06-15T03:25:38.637984,13.19724091,.0001857,87.9172,305.3735,102.3520,257.7821,0,U,49297,999,22618,-.19512E-3,-.65E-6,0
ONEWEB-0372,2021-090V,2026-06-15T00:59:01.193856,13.20771281,.0001957,87.9195,274.8694,101.5042,258.6311,0,U,49298,999,22955,.38016E-4,.28E-6,0
ONEWEB-0373,2021-090W,2026-06-15T01:35:35.548224,13.20771411,.0002082,87.9191,274.8648,100.4692,259.6676,0,U,49299,999,23074,-.14819E-4,.7E-7,0
ONEWEB-0374,2021-090X,2026-06-15T01:31:30.866016,13.14502622,.000221,87.8966,290.1206,85.4942,274.6440,0,U,49300,999,22728,-.88782E-3,-.316E-5,0
ONEWEB-0375,2021-090Y,2026-06-15T01:18:37.827936,13.20770977,.0002333,87.9193,274.8587,88.1674,271.9727,0,U,49301,999,23024,-.51597E-4,-.8E-7,0
ONEWEB-0376,2021-090Z,2026-06-15T03:23:22.183872,13.19724642,.0001683,87.9175,305.3738,101.0751,259.0571,0,U,49302,999,22618,-.18416E-3,-.61E-6,0
ONEWEB-0377,2021-090AA,2026-06-15T00:59:19.540896,13.20818491,.0002171,87.9210,274.8635,108.3576,251.7794,0,U,49303,999,23023,.44432E-2,.1821E-4,0
ONEWEB-0378,2021-090AB,2026-06-15T01:28:30.689184,13.20769784,.0001967,87.9188,274.8644,96.0631,264.0726,0,U,49304,999,22950,-.46416E-4,-.6E-7,0
ONEWEB-0379,2021-090AC,2026-06-15T01:24:39.436992,13.14502324,.0001925,87.8964,290.1321,96.1499,263.9850,0,U,49305,999,22728,-.76064E-3,-.269E-5,0
ONEWEB-0380,2021-090AD,2026-06-15T03:18:50.035104,13.19724430,.0002051,87.9168,305.3797,97.3984,262.7381,0,U,49306,999,22615,-.61008E-4,-.11E-6,0
ONEWEB-0381,2021-090AE,2026-06-15T00:54:23.188896,13.20771809,.0002106,87.9195,274.8687,93.3234,266.8141,0,U,49307,999,22954,.37395E-4,.28E-6,0
ONEWEB-0382,2021-090AF,2026-06-15T00:34:58.946304,13.20750366,.0002282,87.9189,274.8657,88.4606,271.6788,0,U,49308,999,22953,.97365E-2,.3972E-4,0
ONEWEB-0383,2021-090AG,2026-06-15T01:15:30.327840,13.14500885,.0001853,87.8967,290.1246,95.0138,265.1203,0,U,49309,999,22731,-.54281E-3,-.188E-5,0
ONEWEB-0384,2021-090AH,2026-06-14T20:40:32.911392,13.20812344,.00019886,87.9194,274.9419,86.7173,273.4188,0,U,49310,999,22952,.26116878E-4,.24E-6,0
ONEWEB-0385,2021-090AJ,2026-06-15T00:25:17.719680,13.20771920,.0002016,87.9192,274.8724,94.2393,265.8971,0,U,49311,999,22951,.21298E-4,.22E-6,0
ONEWEB-0386,2021-090AK,2026-06-15T00:49:32.332800,13.20771430,.0001962,87.9195,274.8598,93.1476,266.9882,0,U,49312,999,22953,.73708E-4,.43E-6,0
ONEWEB-0387,2021-090AL,2026-06-15T00:27:43.172352,13.20772403,.0002333,87.9183,274.8853,96.7289,263.4109,0,U,49313,999,22953,.47263E-4,.32E-6,0
ONEWEB-0388,2021-090AM,2026-06-15T03:12:00.651168,13.19724433,.0001887,87.9167,305.3787,94.2448,265.8901,0,U,49314,999,22614,-.18236E-3,-.6E-6,0
ONEWEB-0389,2021-132A,2026-06-15T01:44:24.361152,13.17648528,.0002184,87.9132,6.2889,82.8767,277.2612,0,U,50469,999,21780,.27584E-3,.12E-5,0
ONEWEB-0390,2021-132B,2026-06-15T01:46:50.168928,13.17648461,.0001965,87.9133,6.2894,94.1033,266.0324,0,U,50470,999,21780,.43119E-4,.3E-6,0
ONEWEB-0391,2021-132C,2026-06-15T01:49:16.063104,13.17648434,.0002695,87.9134,6.2987,86.5823,273.5616,0,U,50471,999,21780,-.10615E-3,-.28E-6,0
ONEWEB-0392,2021-132D,2026-06-15T02:33:01.054080,13.17649217,.0002232,87.9142,6.2608,83.8500,276.2885,0,U,50472,999,21784,-.13562E-3,-.4E-6,0
ONEWEB-0393,2021-132E,2026-06-15T01:57:46.312128,13.17649916,.0002012,87.9134,6.2830,85.4194,274.7168,0,U,50473,999,21783,-.3284E-4,0,0
ONEWEB-0394,2021-132F,2026-06-14T23:21:57.350016,13.18681025,.0001815,87.9170,335.8823,86.9904,273.1436,0,U,50474,999,22130,.28038E-2,.1118E-4,0
ONEWEB-0395,2021-132G,2026-06-15T02:34:07.372128,13.11420007,.0002007,87.8887,21.4815,89.0881,271.0477,0,U,50475,999,21544,.17604E-3,.75E-6,0
ONEWEB-0396,2021-132H,2026-06-15T01:01:28.872192,13.18684810,.0001948,87.9168,335.8813,87.6345,272.5010,0,U,50476,999,22135,.33195E-4,.26E-6,0
ONEWEB-0397,2021-132J,2026-06-14T23:34:04.507104,13.18684824,.000187,87.9168,335.8934,84.6156,275.5189,0,U,50477,999,22132,.7211E-4,.41E-6,0
ONEWEB-0398,2021-132K,2026-06-15T01:47:43.319616,13.11414583,.0001939,87.8893,21.4782,94.6934,265.4415,0,U,50478,999,21533,-.82706E-3,-.28E-5,0
